COMMENT,ORIGINATOR,NORAD_CAT_ID,OBJECT_NAME,OBJECT_TYPE,CLASSIFICATION_TYPE,INTLDES,EPOCH,EPOCH_MICROSECONDS,MEAN_MOTION,ECCENTRICITY,INCLINATION,RA_OF_ASC_NODE,ARG_OF_PERICENTER,MEAN_ANOMALY,EPHEMERIS_TYPE,ELEMENT_SET_NO,REV_AT_EPOCH,BSTAR,MEAN_MOTION_DOT,MEAN_MOTION_DDOT,FILE,TLE_LINE0,TLE_LINE1,TLE_LINE2,OBJECT_ID,OBJECT_NUMBER,SEMIMAJOR_AXIS,PERIOD,APOGEE,PERIGEE,DECAYED
GENERATED VIA SPACETRACK.ORG API,18 SPCS,57309,STARLINK-30163,PAYLOAD,U,23096V,2024-01-19 18:51:53,920800,15.02580828,0.0001438,43.0017,140.5933,290.473,69.5958,0,999,2936,0.002316,0.00031259,0,4166567,0 STARLINK-30163,1 57309U 23096V   24019.78604075  .00031259  00000-0  23160-2 0  9991,2 57309  43.0017 140.5933 0001438 290.4730  69.5958 15.02580828 29368,2023-096V,57309,6937.079,95.835,559.941,557.946,1
GENERATED VIA SPACETRACK.ORG API,18 SPCS,57309,STARLINK-30163,PAYLOAD,U,23096V,2024-01-20 10:49:11,243712,15.02538618,0.0001383,43.0021,136.9805,271.9727,88.0957,0,999,2946,0.0010045,0.00013392,0,4166834,0 STARLINK-30163,1 57309U 23096V   24020.45082458  .00013392  00000-0  10045-2 0  9998,2 57309  43.0021 136.9805 0001383 271.9727  88.0957 15.02538618 29465,2023-096V,57309,6937.208,95.838,560.033,558.114,1
GENERATED VIA SPACETRACK.ORG API,18 SPCS,57309,STARLINK-30163,PAYLOAD,U,23096V,2024-01-20 14:00:38,551392,15.02544357,0.000127,43.0021,136.2576,274.3109,85.7589,0,999,2951,0.00091343,0.00012159,0,4166981,0 STARLINK-30163,1 57309U 23096V   24020.58377953  .00012159  00000-0  91343-3 0  9990,2 57309  43.0021 136.2576 0001270 274.3109  85.7589 15.02544357 29517,2023-096V,57309,6937.191,95.837,559.937,558.175,1
GENERATED VIA SPACETRACK.ORG API,18 SPCS,57309,STARLINK-30163,PAYLOAD,U,23096V,2024-01-20 18:47:49,534080,15.02549744,0.0001367,43.0021,135.1742,272.279,87.7896,0,999,2954,0.0017974,0.00024169,0,4167280,0 STARLINK-30163,1 57309U 23096V   24020.78321220  .00024169  00000-0  17974-2 0  9999,2 57309  43.0021 135.1742 0001367 272.2790  87.7896 15.02549744 29541,2023-096V,57309,6937.174,95.837,559.988,558.091,1
GENERATED VIA SPACETRACK.ORG API,18 SPCS,57309,STARLINK-30163,PAYLOAD,U,23096V,2024-01-21 12:20:50,127648,15.02557581,0.0001479,43.0024,131.2004,272.601,87.4663,0,999,2962,0.0022901,0.00030886,0,4167768,0 STARLINK-30163,1 57309U 23096V   24021.51446907  .00030886  00000-0  22901-2 0  9990,2 57309  43.0024 131.2004 0001479 272.6010  87.4663 15.02557581 29621,2023-096V,57309,6937.150,95.837,560.041,557.989,1
GENERATED VIA SPACETRACK.ORG API,18 SPCS,57309,STARLINK-30163,PAYLOAD,U,23096V,2024-01-21 18:43:44,438016,15.02573622,0.000138,43.0024,129.7555,268.4453,91.6232,0,999,2969,0.0025575,0.00034549,0,4168132,0 STARLINK-30163,1 57309U 23096V   24021.78037544  .00034549  00000-0  25575-2 0  9992,2 57309  43.0024 129.7555 0001380 268.4453  91.6232 15.02573622 29699,2023-096V,57309,6937.101,95.836,559.923,558.008,1
GENERATED VIA SPACETRACK.ORG API,18 SPCS,57309,STARLINK-30163,PAYLOAD,U,23096V,2024-01-22 10:41:01,788576,15.02540277,0.0001219,43.0031,126.1434,268.2818,91.7885,0,999,2976,0.001075,0.00014349,0,4168557,0 STARLINK-30163,1 57309U 23096V   24022.44515959  .00014349  00000-0  10750-2 0  9992,2 57309  43.0031 126.1434 0001219 268.2818  91.7885 15.02540277 29761,2023-096V,57309,6937.203,95.838,559.914,558.223,1
GENERATED VIA SPACETRACK.ORG API,18 SPCS,57309,STARLINK-30163,PAYLOAD,U,23096V,2024-01-22 18:39:40,204224,15.02554742,0.0001375,43.0025,124.3378,288.871,71.1983,0,999,2984,0.0023495,0.00031694,0,4168971,0 STARLINK-30163,1 57309U 23096V   24022.77754866  .00031694  00000-0  23495-2 0  9992,2 57309  43.0025 124.3378 0001375 288.8710  71.1983 15.02554742 29845,2023-096V,57309,6937.159,95.837,559.978,558.070,1
GENERATED VIA SPACETRACK.ORG API,18 SPCS,57309,STARLINK-30163,PAYLOAD,U,23096V,2024-01-22 18:39:40,204224,15.02554742,0.0001375,43.0025,124.3378,288.871,71.1983,0,999,2981,0.0023495,0.00031694,0,4169095,0 STARLINK-30163,1 57309U 23096V   24022.77754866  .00031694  00000-0  23495-2 0  9992,2 57309  43.0025 124.3378 0001375 288.8710  71.1983 15.02554742 29812,2023-096V,57309,6937.159,95.837,559.978,558.070,1
GENERATED VIA SPACETRACK.ORG API,18 SPCS,57309,STARLINK-30163,PAYLOAD,U,23096V,2024-01-26 10:24:42,949152,15.02546667,0.0001162,43.0032,104.4703,282.3606,77.7106,0,999,3036,0.00084891,0.00011285,0,4171683,0 STARLINK-30163,1 57309U 23096V   24026.43383043  .00011285  00000-0  84891-3 0  9996,2 57309  43.0032 104.4703 0001162 282.3606  77.7106 15.02546667 30366,2023-096V,57309,6937.184,95.837,559.855,558.243,1
GENERATED VIA SPACETRACK.ORG API,18 SPCS,57309,STARLINK-30163,PAYLOAD,U,23096V,2024-01-26 13:36:10,214496,15.02549295,0.0001237,43.0032,103.7496,284.1852,75.8853,0,999,3041,0.00085454,0.00011363,0,4171858,0 STARLINK-30163,1 57309U 23096V   24026.56678489  .00011363  00000-0  85454-3 0  9994,2 57309  43.0032 103.7496 0001237 284.1852  75.8853 15.02549295 30417,2023-096V,57309,6937.176,95.837,559.899,558.182,1
GENERATED VIA SPACETRACK.ORG API,18 SPCS,57309,STARLINK-30163,PAYLOAD,U,23096V,2024-01-27 02:22:00,158880,15.02531571,0.0000944,43.002,100.8626,306.6154,53.4601,0,999,3046,0.000020969,0.0000008,0,4172204,0 STARLINK-30163,1 57309U 23096V   24027.09861295  .00000080  00000-0  20969-4 0  9997,2 57309  43.0020 100.8626 0000944 306.6154  53.4601 15.02531571 30462,2023-096V,57309,6937.230,95.838,559.750,558.440,1
GENERATED VIA SPACETRACK.ORG API,18 SPCS,57309,STARLINK-30163,PAYLOAD,U,23096V,2024-01-27 07:09:10,963584,15.0254246,0.0000996,43.0028,99.7746,257.771,102.3021,0,999,3052,0.00063609,0.00008401,0,4172745,0 STARLINK-30163,1 57309U 23096V   24027.29804356  .00008401  00000-0  63609-3 0  9996,2 57309  43.0028  99.7746 0000996 257.7710 102.3021 15.02542460 30526,2023-096V,57309,6937.197,95.838,559.753,558.371,1
GENERATED VIA SPACETRACK.ORG API,18 SPCS,57309,STARLINK-30163,PAYLOAD,U,23096V,2024-01-27 07:09:10,963584,15.0254246,0.0000996,43.0028,99.7746,257.771,102.3021,0,999,3049,0.00063609,0.00008401,0,4172884,0 STARLINK-30163,1 57309U 23096V   24027.29804356  .00008401  00000-0  63609-3 0  9996,2 57309  43.0028  99.7746 0000996 257.7710 102.3021 15.02542460 30492,2023-096V,57309,6937.197,95.838,559.753,558.371,1
GENERATED VIA SPACETRACK.ORG API,18 SPCS,57309,STARLINK-30163,PAYLOAD,U,23096V,2024-01-28 05:29:22,805952,15.02544196,0.0000826,43.0015,94.7168,228.0692,132.008,0,999,3063,0.00086139,0.00011454,0,4173134,0 STARLINK-30163,1 57309U 23096V   24028.22873618  .00011454  00000-0  86139-3 0  9992,2 57309  43.0015  94.7168 0000826 228.0692 132.0080 15.02544196 30632,2023-096V,57309,6937.191,95.837,559.629,558.483,1
GENERATED VIA SPACETRACK.ORG API,18 SPCS,57309,STARLINK-30163,PAYLOAD,U,23096V,2024-01-28 13:28:01,145568,15.02545654,0.0001018,43.0026,92.9113,246.7265,113.347,0,999,3071,0.00066389,0.00008778,0,4173554,0 STARLINK-30163,1 57309U 23096V   24028.56112437  .00008778  00000-0  66389-3 0  9994,2 57309  43.0026  92.9113 0001018 246.7265 113.3470 15.02545654 30715,2023-096V,57309,6937.187,95.837,559.758,558.346,1
GENERATED VIA SPACETRACK.ORG API,18 SPCS,57309,STARLINK-30163,PAYLOAD,U,23096V,2024-01-28 13:28:01,145568,15.02545654,0.0001018,43.0026,92.9113,246.7265,113.347,0,999,3068,0.00066389,0.00008778,0,4173923,0 STARLINK-30163,1 57309U 23096V   24028.56112437  .00008778  00000-0  66389-3 0  9994,2 57309  43.0026  92.9113 0001018 246.7265 113.3470 15.02545654 30681,2023-096V,57309,6937.187,95.837,559.758,558.346,1
GENERATED VIA SPACETRACK.ORG API,18 SPCS,57309,STARLINK-30163,PAYLOAD,U,23096V,2024-01-29 11:48:12,578400,15.02547768,0.000108,43.0029,87.8549,263.4166,96.6553,0,999,3082,0.00041265,0.00005377,0,4174214,0 STARLINK-30163,1 57309U 23096V   24029.49181225  .00005377  00000-0  41265-3 0  9996,2 57309  43.0029  87.8549 0001080 263.4166  96.6553 15.02547768 30824,2023-096V,57309,6937.180,95.837,559.795,558.296,1
GENERATED VIA SPACETRACK.ORG API,18 SPCS,57309,STARLINK-30163,PAYLOAD,U,23096V,2024-01-29 13:23:56,192928,15.02549097,0.0001126,43.0028,87.4942,268.622,91.4493,0,999,3086,0.0004027,0.00005242,0,4174567,0 STARLINK-30163,1 57309U 23096V   24029.55828927  .00005242  00000-0  40270-3 0  9996,2 57309  43.0028  87.4942 0001126 268.6220  91.4493 15.02549097 30862,2023-096V,57309,6937.176,95.837,559.822,558.260,1
GENERATED VIA SPACETRACK.ORG API,18 SPCS,57309,STARLINK-30163,PAYLOAD,U,23096V,2024-01-30 03:45:29,938464,15.02535671,0.0000972,43.0039,84.2442,272.8187,87.2544,0,999,3092,0.00011277,0.0000132,0,4174759,0 STARLINK-30163,1 57309U 23096V   24030.15659651  .00001320  00000-0  11277-3 0  9998,2 57309  43.0039  84.2442 0000972 272.8187  87.2544 15.02535671 30921,2023-096V,57309,6937.218,95.838,559.757,558.408,1
GENERATED VIA SPACETRACK.ORG API,18 SPCS,57309,STARLINK-30163,PAYLOAD,U,23096V,2024-01-30 13:19:51,860640,15.02543449,0.0001038,43.0032,82.076,272.7007,87.3716,0,999,3101,0.00046114,0.00006032,0,4175201,0 STARLINK-30163,1 57309U 23096V   24030.55546135  .00006032  00000-0  46114-3 0  9997,2 57309  43.0032  82.0760 0001038 272.7007  87.3716 15.02543449 31012,2023-096V,57309,6937.194,95.837,559.779,558.339,1
GENERATED VIA SPACETRACK.ORG API,18 SPCS,57309,STARLINK-30163,PAYLOAD,U,23096V,2024-01-30 14:55:35,521824,15.02543896,0.0001033,43.0029,81.7142,271.7969,88.2755,0,999,3102,0.00047887,0.00006272,0,4175464,0 STARLINK-30163,1 57309U 23096V   24030.62193891  .00006272  00000-0  47887-3 0  9996,2 57309  43.0029  81.7142 0001033 271.7969  88.2755 15.02543896 31029,2023-096V,57309,6937.192,95.837,559.774,558.341,1
GENERATED VIA SPACETRACK.ORG API,18 SPCS,57309,STARLINK-30163,PAYLOAD,U,23096V,2024-01-30 14:55:35,521824,15.02543896,0.0001033,43.0029,81.7142,271.7969,88.2755,0,999,3099,0.00047887,0.00006272,0,4175618,0 STARLINK-30163,1 57309U 23096V   24030.62193891  .00006272  00000-0  47887-3 0  9996,2 57309  43.0029  81.7142 0001033 271.7969  88.2755 15.02543896 30994,2023-096V,57309,6937.192,95.837,559.774,558.341,1
